OBJECT_NAME,OBJECT_ID,EPOCH,MEAN_MOTION,ECCENTRICITY,INCLINATION,RA_OF_ASC_NODE,ARG_OF_PERICENTER,MEAN_ANOMALY,EPHEMERIS_TYPE,CLASSIFICATION_TYPE,NORAD_CAT_ID,ELEMENT_SET_NO,REV_AT_EPOCH,BSTAR,MEAN_MOTION_DOT,MEAN_MOTION_DDOT
ONEWEB-0336,2021-083S,2026-06-17T22:39:44.123616,13.13470476,.00022396,87.8952,320.0768,92.4956,267.6429,0,U,49202,999,23101,.90877167E-3,.345E-5,0
ONEWEB-0337,2021-083T,2026-06-17T22:54:10.247328,13.13469901,.00020401,87.8952,320.0807,98.5203,261.6158,0,U,49203,999,23101,.72298893E-3,.277E-5,0
ONEWEB-0338,2021-083U,2026-06-17T19:10:05.330784,13.20774140,.00016884,87.9186,274.3267,104.3964,255.7356,0,U,49204,999,23689,.21930167E-4,.22E-6,0
ONEWEB-0339,2021-083V,2026-06-17T23:06:32.786208,13.13469906,.00016675,87.8952,320.0715,104.7391,255.3924,0,U,49205,999,23099,.21645005E-3,.92E-6,0
ONEWEB-0340,2021-083W,2026-06-17T23:14:09.863808,13.18685284,.00019807,87.9171,335.2998,91.4067,268.7292,0,U,49206,999,23007,-.22024277E-4,.4E-7,0
ONEWEB-0341,2021-083X,2026-06-17T23:23:52.663776,13.18685860,.0002272,87.9165,335.3016,101.7573,258.3814,0,U,49207,999,23009,-.12092749E-3,-.35E-6,0
ONEWEB-0342,2021-083Y,2026-06-17T19:19:47.849088,13.20771183,.00019513,87.9195,274.3134,103.5580,256.5771,0,U,49208,999,23686,.57217362E-4,.36E-6,0
ONEWEB-0343,2021-083Z,2026-06-17T23:36:01.281024,13.18686091,.00016455,87.9166,335.2987,105.4750,254.6564,0,U,49209,999,23014,-.16514813E-3,-.52E-6,0
ONEWEB-0344,2021-083AA,2026-06-17T22:59:13.111296,13.13471744,.00021665,87.8944,320.0868,102.6825,257.4547,0,U,49210,999,23099,.59596986E-3,.23E-5,0
ONEWEB-0345,2021-083AB,2026-06-17T22:47:02.297760,13.13470628,.00020483,87.8963,320.0696,102.2350,257.9008,0,U,49211,999,23100,.80547379E-3,.307E-5,0
ONEWEB-0346,2021-083AC,2026-06-17T23:31:09.758784,13.18685551,.00022983,87.9161,335.2995,79.7046,280.4345,0,U,49212,999,23008,-.20340041E-4,.5E-7,0
ONEWEB-0348,2021-083AD,2026-06-17T19:05:15.058752,13.20770769,.00024745,87.9196,274.3194,95.9862,264.1554,0,U,49213,999,23689,.11974805E-3,.62E-6,0
ONEWEB-0350,2021-083AE,2026-06-17T23:11:28.315680,13.12942631,.00021109,87.8957,320.0708,99.3279,260.8088,0,U,49214,999,23103,.39759657E-4,.27E-6,0
ONEWEB-0351,2021-083AF,2026-06-17T18:55:20.684640,13.20770762,.00020769,87.9197,274.3195,125.5465,234.5863,0,U,49215,999,23685,.12414346E-3,.63E-6,0
ONEWEB-0352,2021-083AG,2026-06-17T22:32:25.456992,13.13470761,.00016706,87.8954,320.0828,109.7823,250.3486,0,U,49216,999,23112,.673852E-3,.259E-5,0
ONEWEB-0354,2021-083AH,2026-06-18T06:28:52.567968,13.20772899,.00024067,87.9197,274.2223,100.0977,260.0428,0,U,49217,999,23695,.11201476E-3,.59E-6,0
ONEWEB-0355,2021-083AJ,2026-06-17T23:14:03.878016,13.13469190,.00018953,87.8951,320.0780,103.4532,256.6808,0,U,49218,999,23100,-.20884286E-3,-.64E-6,0
ONEWEB-0357,2021-083AK,2026-06-17T19:29:29.364288,13.20772861,.00019459,87.9196,274.3078,106.4919,253.6429,0,U,49219,999,23689,.10498698E-3,.56E-6,0
ONEWEB-0332,2021-090A,2026-06-17T19:51:42.064416,13.14501863,.00017136,87.8964,289.5812,102.0627,258.0694,0,U,49279,999,22766,-.66174081E-3,-.233E-5,0
ONEWEB-0347,2021-090B,2026-06-17T19:14:56.999904,13.20771216,.00016835,87.9196,274.3179,101.0662,259.0661,0,U,49280,999,23112,-.8313325E-5,.1E-6,0
ONEWEB-0349,2021-090C,2026-06-18T06:55:32.877408,13.20772653,.00020193,87.9195,274.2215,101.3107,258.8254,0,U,49281,999,22997,.95172207E-4,.52E-6,0
ONEWEB-0353,2021-090D,2026-06-18T06:37:57.239616,13.14503055,.00016464,87.8968,289.4870,100.5373,259.5942,0,U,49282,999,22772,-.31361804E-3,-.103E-5,0
ONEWEB-0356,2021-090E,2026-06-18T06:53:06.593568,13.20773607,.00020227,87.9195,274.2152,77.0338,283.1021,0,U,49283,999,22997,.58994498E-4,.37E-6,0
ONEWEB-0358,2021-090F,2026-06-17T18:57:14.712768,13.20237284,.00021069,87.9198,274.3200,95.5162,264.6211,0,U,49284,999,23063,.46239239E-4,.32E-6,0
ONEWEB-0359,2021-090G,2026-06-17T20:37:21.734976,13.20773520,.00022835,87.9194,274.3003,99.1149,261.0243,0,U,49285,999,23062,.11208056E-3,.59E-6,0
ONEWEB-0360,2021-090H,2026-06-18T05:28:15.015648,13.20769408,.0002025,87.9192,274.2333,102.8167,257.3193,0,U,49286,999,22998,.1631151E-3,.79E-6,0
ONEWEB-0361,2021-090J,2026-06-17T19:56:09.214080,13.20771311,.00020896,87.9196,274.3106,98.0707,262.0663,0,U,49287,999,23038,-.71737446E-4,-.16E-6,0
ONEWEB-0362,2021-090K,2026-06-17T22:26:58.171200,13.19724481,.00019485,87.9170,304.8286,107.0638,253.0709,0,U,49288,999,22701,-.65151061E-4,-.13E-6,0
ONEWEB-0363,2021-090L,2026-06-18T05:23:25.071936,13.20770915,.00020374,87.9195,274.2323,90.9808,269.1559,0,U,49289,999,23044,.15663273E-3,.77E-6,0
ONEWEB-0364,2021-090M,2026-06-18T06:19:10.701120,13.20771969,.00020149,87.9194,274.2327,101.4270,258.7090,0,U,49290,999,23158,.38455788E-3,.169E-5,0
